{
  "norad_id": 66770,
  "name": "LILIUM-3",
  "history": [
    {
      "epoch": "2026-04-14T11:20:49.791264Z",
      "apogee_km": 510.5193587489748,
      "perigee_km": 505.91748287546307,
      "latitude_deg": 4.31410444592911e-05,
      "longitude_deg": 166.43500638556404,
      "height_km": 512.0552506419274,
      "semi_major_axis_km": 6886.355420812219,
      "eccentricity": 0.00033413,
      "inclination_deg": 97.4274,
      "raan_deg": 179.2912,
      "arg_perigee_deg": 109.1128,
      "mean_anomaly_deg": 251.0469,
      "mean_motion_rev_day": 15.19212801
    },
    {
      "epoch": "2026-04-15T17:22:54.445728Z",
      "apogee_km": 510.64422883860425,
      "perigee_km": 505.75492986726294,
      "latitude_deg": 3.448193794771448e-05,
      "longitude_deg": 75.9123378838183,
      "height_km": 511.8692275546896,
      "semi_major_axis_km": 6886.336579352933,
      "eccentricity": 0.000355,
      "inclination_deg": 97.4269,
      "raan_deg": 180.5214,
      "arg_perigee_deg": 103.8882,
      "mean_anomaly_deg": 256.2748,
      "mean_motion_rev_day": 15.19219036
    },
    {
      "epoch": "2026-04-16T20:15:17.395776Z",
      "apogee_km": 510.6669786146049,
      "perigee_km": 505.70607114728045,
      "latitude_deg": 3.3188907557420256e-05,
      "longitude_deg": 32.814378393444464,
      "height_km": 511.77921032551785,
      "semi_major_axis_km": 6886.323524880942,
      "eccentricity": 0.0003602,
      "inclination_deg": 97.4268,
      "raan_deg": 181.6227,
      "arg_perigee_deg": 101.8647,
      "mean_anomaly_deg": 258.2992,
      "mean_motion_rev_day": 15.19223356
    },
    {
      "epoch": "2026-04-17T16:48:17.072640Z",
      "apogee_km": 510.62483103522845,
      "perigee_km": 505.7224664843761,
      "latitude_deg": 3.909006661783493e-05,
      "longitude_deg": 84.56377030900491,
      "height_km": 511.6746447741082,
      "semi_major_axis_km": 6886.310648759802,
      "eccentricity": 0.00035595,
      "inclination_deg": 97.4267,
      "raan_deg": 182.4647,
      "arg_perigee_deg": 99.8251,
      "mean_anomaly_deg": 260.3386,
      "mean_motion_rev_day": 15.19227617
    },
    {
      "epoch": "2026-04-18T03:52:12.251424Z",
      "apogee_km": 510.6223992573905,
      "perigee_km": 505.71411632184845,
      "latitude_deg": -2.759179293553149e-05,
      "longitude_deg": -81.41716915138657,
      "height_km": 511.6259273325566,
      "semi_major_axis_km": 6886.30525778962,
      "eccentricity": 0.00035638,
      "inclination_deg": 97.4267,
      "raan_deg": 182.9181,
      "arg_perigee_deg": 98.7887,
      "mean_anomaly_deg": 261.3751,
      "mean_motion_rev_day": 15.19229401
    },
    {
      "epoch": "2026-04-19T17:48:29.390112Z",
      "apogee_km": 510.60065718770966,
      "perigee_km": 505.69211439031824,
      "latitude_deg": -1.5588747199335158e-05,
      "longitude_deg": 69.50795499205205,
      "height_km": 511.4654785101701,
      "semi_major_axis_km": 6886.283385789014,
      "eccentricity": 0.0003564,
      "inclination_deg": 97.4269,
      "raan_deg": 184.4727,
      "arg_perigee_deg": 95.5291,
      "mean_anomaly_deg": 264.635,
      "mean_motion_rev_day": 15.19236639
    },
    {
      "epoch": "2026-04-20T04:52:24.587040Z",
      "apogee_km": 510.67094016846113,
      "perigee_km": 505.63017767532983,
      "latitude_deg": 8.565427545099798e-05,
      "longitude_deg": -96.4732831624782,
      "height_km": 511.4737711412654,
      "semi_major_axis_km": 6886.287558921895,
      "eccentricity": 0.000366,
      "inclination_deg": 97.4262,
      "raan_deg": 184.9259,
      "arg_perigee_deg": 95.482,
      "mean_anomaly_deg": 264.6833,
      "mean_motion_rev_day": 15.19235258
    },
    {
      "epoch": "2026-04-21T15:38:59.843328Z",
      "apogee_km": 510.6141064833773,
      "perigee_km": 505.65736736733834,
      "latitude_deg": 5.205286858009492e-05,
      "longitude_deg": 101.87659805686343,
      "height_km": 511.34719381954994,
      "semi_major_axis_km": 6886.272736925357,
      "eccentricity": 0.0003599,
      "inclination_deg": 97.4268,
      "raan_deg": 186.3509,
      "arg_perigee_deg": 92.9826,
      "mean_anomaly_deg": 267.1821,
      "mean_motion_rev_day": 15.19240163
    },
    {
      "epoch": "2026-04-21T21:58:22.568736Z",
      "apogee_km": 510.61030309458874,
      "perigee_km": 505.65218995708983,
      "latitude_deg": -7.844426603122691e-05,
      "longitude_deg": 7.031249552089534,
      "height_km": 511.31717372845634,
      "semi_major_axis_km": 6886.2682465258395,
      "eccentricity": 0.00036,
      "inclination_deg": 97.4267,
      "raan_deg": 186.6099,
      "arg_perigee_deg": 92.3907,
      "mean_anomaly_deg": 267.7739,
      "mean_motion_rev_day": 15.19241649
    },
    {
      "epoch": "2026-04-23T04:00:25.348320Z",
      "apogee_km": 510.5786124300712,
      "perigee_km": 505.65714379378187,
      "latitude_deg": -6.830958457381907e-06,
      "longitude_deg": -83.48310116052532,
      "height_km": 511.2000588624084,
      "semi_major_axis_km": 6886.254878111926,
      "eccentricity": 0.00035734,
      "inclination_deg": 97.4266,
      "raan_deg": 187.8406,
      "arg_perigee_deg": 89.9917,
      "mean_anomaly_deg": 270.1727,
      "mean_motion_rev_day": 15.19246073
    },
    {
      "epoch": "2026-04-24T11:37:18.327360Z",
      "apogee_km": 510.55831290702645,
      "perigee_km": 505.64291649765073,
      "latitude_deg": 8.247207105227774e-05,
      "longitude_deg": 162.2930690794769,
      "height_km": 511.0796131458858,
      "semi_major_axis_km": 6886.237614702338,
      "eccentricity": 0.0003569,
      "inclination_deg": 97.4265,
      "raan_deg": 189.1359,
      "arg_perigee_deg": 87.5858,
      "mean_anomaly_deg": 272.5786,
      "mean_motion_rev_day": 15.19251786
    },
    {
      "epoch": "2026-04-25T05:00:35.143776Z",
      "apogee_km": 510.57471279010315,
      "perigee_km": 505.59046705091896,
      "latitude_deg": -6.503492221241551e-06,
      "longitude_deg": -98.52878823671878,
      "height_km": 510.977217235198,
      "semi_major_axis_km": 6886.219589920511,
      "eccentricity": 0.0003619,
      "inclination_deg": 97.4263,
      "raan_deg": 189.8482,
      "arg_perigee_deg": 85.6777,
      "mean_anomaly_deg": 274.4871,
      "mean_motion_rev_day": 15.19257751
    },
    {
      "epoch": "2026-04-26T17:21:58.896576Z",
      "apogee_km": 510.48375637109257,
      "perigee_km": 505.6025564290303,
      "latitude_deg": -6.92666710629965e-05,
      "longitude_deg": 76.11903783050352,
      "height_km": 510.8318954250098,
      "semi_major_axis_km": 6886.180156400061,
      "eccentricity": 0.00035442,
      "inclination_deg": 97.426,
      "raan_deg": 191.3381,
      "arg_perigee_deg": 83.0835,
      "mean_anomaly_deg": 277.0802,
      "mean_motion_rev_day": 15.19270801
    },
    {
      "epoch": "2026-04-27T17:04:37.399008Z",
      "apogee_km": 510.4683336617127,
      "perigee_km": 505.59017348767975,
      "latitude_deg": 4.7913364537465034e-05,
      "longitude_deg": 80.45633293229022,
      "height_km": 510.73576709307275,
      "semi_major_axis_km": 6886.1662535746955,
      "eccentricity": 0.0003542,
      "inclination_deg": 97.4261,
      "raan_deg": 192.3096,
      "arg_perigee_deg": 81.129,
      "mean_anomaly_deg": 279.0346,
      "mean_motion_rev_day": 15.19275402
    }
  ]
}